{
  "type": "FeatureCollection",
  "features": [
    {
      "type": "Feature",
      "properties": {
        "norad_id": 41890,
        "name": "CYGFM07",
        "group": "weather",
        "lat": -7.677726519530224,
        "lon": -32.641307498993136,
        "alt_km": 413.88954104456025,
        "timestamp": "2025-12-19T06:59:43.546566+00:00",
        "meta_object_name": "CYGFM07",
        "meta_object_id": "2016-078G",
        "meta_epoch": "2025-12-18T09:24:57.659328",
        "meta_mean_motion": 15.50233776,
        "meta_eccentricity": 0.00101264,
        "meta_inclination": 34.9484,
        "meta_ra_of_asc_node": 344.3859,
        "meta_arg_of_pericenter": 263.9278,
        "meta_mean_anomaly": 96.029,
        "meta_ephemeris_type": 0,
        "meta_classification_type": "U",
        "meta_norad_cat_id": 41890,
        "meta_element_set_no": 999,
        "meta_rev_at_epoch": 50083,
        "meta_bstar": 0.00033098581,
        "meta_mean_motion_dot": 0.00019332,
        "meta_mean_motion_ddot": 0,
        "tle_line1": "1 41890U 16078G   25352.39233402  .00019332  00000+0  33099-3 0  9991",
        "tle_line2": "2 41890  34.9484 344.3859 0010126 263.9278  96.0290 15.50233776500830"
      },
      "geometry": {
        "type": "Point",
        "coordinates": [
          -32.641307498993136,
          -7.677726519530224
        ]
      }
    },
    {
      "type": "Feature",
      "properties": {
        "norad_id": 41891,
        "name": "CYGFM03",
        "group": "weather",
        "lat": 0.7162630893507993,
        "lon": 159.38508710031135,
        "alt_km": 414.0749273360443,
        "timestamp": "2025-12-19T06:59:43.546576+00:00",
        "meta_object_name": "CYGFM03",
        "meta_object_id": "2016-078H",
        "meta_epoch": "2025-12-18T10:08:04.475328",
        "meta_mean_motion": 15.50133143,
        "meta_eccentricity": 0.00096864,
        "meta_inclination": 34.9439,
        "meta_ra_of_asc_node": 346.1113,
        "meta_arg_of_pericenter": 252.1758,
        "meta_mean_anomaly": 107.7907,
        "meta_ephemeris_type": 0,
        "meta_classification_type": "U",
        "meta_norad_cat_id": 41891,
        "meta_element_set_no": 999,
        "meta_rev_at_epoch": 50081,
        "meta_bstar": 0.00034490402,
        "meta_mean_motion_dot": 0.00020074,
        "meta_mean_motion_ddot": 0,
        "tle_line1": "1 41891U 16078H   25352.42227402  .00020074  00000+0  34490-3 0  9990",
        "tle_line2": "2 41891  34.9439 346.1113 0009686 252.1758 107.7907 15.50133143500816"
      },
      "geometry": {
        "type": "Point",
        "coordinates": [
          159.38508710031135,
          0.7162630893507993
        ]
      }
    },
    {
      "type": "Feature",
      "properties": {
        "norad_id": 43010,
        "name": "FENGYUN 3D",
        "group": "weather",
        "lat": -6.115492087830368,
        "lon": -39.32867085157649,
        "alt_km": 830.9665810209153,
        "timestamp": "2025-12-19T06:59:43.546588+00:00",
        "meta_object_name": "FENGYUN 3D",
        "meta_object_id": "2017-072A",
        "meta_epoch": "2025-12-18T22:34:02.022816",
        "meta_mean_motion": 14.19686065,
        "meta_eccentricity": 0.0001257,
        "meta_inclination": 98.989,
        "meta_ra_of_asc_node": 319.3432,
        "meta_arg_of_pericenter": 162.5377,
        "meta_mean_anomaly": 197.5842,
        "meta_ephemeris_type": 0,
        "meta_classification_type": "U",
        "meta_norad_cat_id": 43010,
        "meta_element_set_no": 999,
        "meta_rev_at_epoch": 41941,
        "meta_bstar": 3.59634e-05,
        "meta_mean_motion_dot": 3e-07,
        "meta_mean_motion_ddot": 0,
        "tle_line1": "1 43010U 17072A   25352.94030119  .00000030  00000+0  35963-4 0  9991",
        "tle_line2": "2 43010  98.9890 319.3432 0001257 162.5377 197.5842 14.19686065419415"
      },
      "geometry": {
        "type": "Point",
        "coordinates": [
          -39.32867085157649,
          -6.115492087830368
        ]
      }
    },
    {
      "type": "Feature",
      "properties": {
        "norad_id": 43013,
        "name": "NOAA 20 (JPSS-1)",
        "group": "weather",
        "lat": 36.97751737438206,
        "lon": 116.18412617510063,
        "alt_km": 823.6149802914861,
        "timestamp": "2025-12-19T06:59:43.546599+00:00",
        "meta_object_name": "NOAA 20 (JPSS-1)",
        "meta_object_id": "2017-073A",
        "meta_epoch": "2025-12-18T21:52:07.216032",
        "meta_mean_motion": 14.19527275,
        "meta_eccentricity": 0.00021312,
        "meta_inclination": 98.7607,
        "meta_ra_of_asc_node": 289.1406,
        "meta_arg_of_pericenter": 78.3497,
        "meta_mean_anomaly": 281.7919,
        "meta_ephemeris_type": 0,
        "meta_classification_type": "U",
        "meta_norad_cat_id": 43013,
        "meta_element_set_no": 999,
        "meta_rev_at_epoch": 41889,
        "meta_bstar": 4.1369449e-05,
        "meta_mean_motion_dot": 4.3e-07,
        "meta_mean_motion_ddot": 0,
        "tle_line1": "1 43013U 17073A   25352.91119463  .00000043  00000+0  41369-4 0  9993",
        "tle_line2": "2 43013  98.7607 289.1406 0002131  78.3497 281.7919 14.19527275418895"
      },
      "geometry": {
        "type": "Point",
        "coordinates": [
          116.18412617510063,
          36.97751737438206
        ]
      }
    },
    {
      "type": "Feature",
      "properties": {
        "norad_id": 43226,
        "name": "GOES 17",
        "group": "weather",
        "lat": 0.14319614242907922,
        "lon": 103.55897249246435,
        "alt_km": 35799.34008855357,
        "timestamp": "2025-12-19T06:59:43.546637+00:00",
        "meta_object_name": "GOES 17",
        "meta_object_id": "2018-022A",
        "meta_epoch": "2025-12-18T19:43:02.714880",
        "meta_mean_motion": 1.00271088,
        "meta_eccentricity": 0.00030872,
        "meta_inclination": 0.4725,
        "meta_ra_of_asc_node": 89.1865,
        "meta_arg_of_pericenter": 191.1682,
        "meta_mean_anomaly": 13.5851,
        "meta_ephemeris_type": 0,
        "meta_classification_type": "U",
        "meta_norad_cat_id": 43226,
        "meta_element_set_no": 999,
        "meta_rev_at_epoch": 2861,
        "meta_bstar": 0,
        "meta_mean_motion_dot": -1.58e-06,
        "meta_mean_motion_ddot": 0,
        "tle_line1": "1 43226U 18022A   25352.82155920 -.00000158  00000+0  00000+0 0  9992",
        "tle_line2": "2 43226   0.4725  89.1865 0003087 191.1682  13.5851  1.00271088 28617"
      },
      "geometry": {
        "type": "Point",
        "coordinates": [
          103.55897249246435,
          0.14319614242907922
        ]
      }
    },
    {
      "type": "Feature",
      "properties": {
        "norad_id": 43491,
        "name": "FENGYUN 2H",
        "group": "weather",
        "lat": -0.5245020241935952,
        "lon": -87.57912191620998,
        "alt_km": 35777.06732890573,
        "timestamp": "2025-12-19T06:59:43.546663+00:00",
        "meta_object_name": "FENGYUN 2H",
        "meta_object_id": "2018-050A",
        "meta_epoch": "2025-12-18T20:31:13.099872",
        "meta_mean_motion": 1.00271343,
        "meta_eccentricity": 0.00024052,
        "meta_inclination": 2.5661,
        "meta_ra_of_asc_node": 81.2654,
        "meta_arg_of_pericenter": 165.8531,
        "meta_mean_anomaly": 227.7517,
        "meta_ephemeris_type": 0,
        "meta_classification_type": "U",
        "meta_norad_cat_id": 43491,
        "meta_element_set_no": 999,
        "meta_rev_at_epoch": 2763,
        "meta_bstar": 0,
        "meta_mean_motion_dot": -1.07e-06,
        "meta_mean_motion_ddot": 0,
        "tle_line1": "1 43491U 18050A   25352.85501273 -.00000107  00000+0  00000+0 0  9990",
        "tle_line2": "2 43491   2.5661  81.2654 0002405 165.8531 227.7517  1.00271343 27639"
      },
      "geometry": {
        "type": "Point",
        "coordinates": [
          -87.57912191620998,
          -0.5245020241935952
        ]
      }
    },
    {
      "type": "Feature",
      "properties": {
        "norad_id": 43689,
        "name": "METOP-C",
        "group": "weather",
        "lat": -30.207749053264408,
        "lon": 56.07024400718892,
        "alt_km": 825.875180670334,
        "timestamp": "2025-12-19T06:59:43.546682+00:00",
        "meta_object_name": "METOP-C",
        "meta_object_id": "2018-087A",
        "meta_epoch": "2025-12-18T21:00:11.085984",
        "meta_mean_motion": 14.21486691,
        "meta_eccentricity": 9.475e-05,
        "meta_inclination": 98.6922,
        "meta_ra_of_asc_node": 50.5506,
        "meta_arg_of_pericenter": 28.5833,
        "meta_mean_anomaly": 331.5397,
        "meta_ephemeris_type": 0,
        "meta_classification_type": "U",
        "meta_norad_cat_id": 43689,
        "meta_element_set_no": 999,
        "meta_rev_at_epoch": 36921,
        "meta_bstar": 7.1766616e-05,
        "meta_mean_motion_dot": 1.13e-06,
        "meta_mean_motion_ddot": 0,
        "tle_line1": "1 43689U 18087A   25352.87512831  .00000113  00000+0  71767-4 0  9992",
        "tle_line2": "2 43689  98.6922  50.5506 0000947  28.5833 331.5397 14.21486691369212"
      },
      "geometry": {
        "type": "Point",
        "coordinates": [
          56.07024400718892,
          -30.207749053264408
        ]
      }
    }
  ]
}